[{"OBJECT_NAME":"LEMUR-2-ARIANNA","OBJECT_ID":"2025-009CU","EPOCH":"2026-03-09T17:46:47.419968","MEAN_MOTION":15.00881954,"ECCENTRICITY":0.00046401,"INCLINATION":97.6996,"RA_OF_ASC_NODE":151.0445,"ARG_OF_PERICENTER":147.3928,"MEAN_ANOMALY":212.7583,"EPHEMERIS_TYPE":0,"CLASSIFICATION_TYPE":"U","NORAD_CAT_ID":62699,"ELEMENT_SET_NO":999,"REV_AT_EPOCH":6263,"BSTAR":0.00071790312,"MEAN_MOTION_DOT":9.084e-5,"MEAN_MOTION_DDOT":0},{"OBJECT_NAME":"STARLINK-35890","OBJECT_ID":"2025-280Q","EPOCH":"2026-03-09T22:39:14.243904","MEAN_MOTION":14.983291,"ECCENTRICITY":0.00027531,"INCLINATION":70.0024,"RA_OF_ASC_NODE":333.8241,"ARG_OF_PERICENTER":264.1661,"MEAN_ANOMALY":95.9184,"EPHEMERIS_TYPE":0,"CLASSIFICATION_TYPE":"U","NORAD_CAT_ID":66835,"ELEMENT_SET_NO":999,"REV_AT_EPOCH":1611,"BSTAR":0.00028267663,"MEAN_MOTION_DOT":3.281e-5,"MEAN_MOTION_DDOT":0}]
